MALLIGYONG-1            
1 58400U 23179A   24055.69595237  .00000694  00000+0  34256-4 0  9993
2 58400  97.4205 304.2360 0008178 307.0056  53.0431 15.21162367 14464
